[
  {"id":1,"name":"Annemarie","address":"223 Edinburgh","zipCode":"33120","city":"Orlando","state":"FL","aLT":"123ABC","phoneNumber":"(123)999-4536"},
  {"id":2,"name":"Annemarie","address":"223 Edinburgh","zipCode":"33120","city":"Orlando","state":"FL","aLT":"123ABC","phoneNumber":"(123)999-4536"},
  {"id":3,"name":"Annemarie","address":"223 Edinburgh","zipCode":"33120","city":"Orlando","state":"FL","aLT":"123ABC","phoneNumber":"(123)999-4536"},
  {"id":4,"name":"Annemarie","address":"223 Edinburgh","zipCode":"33120","city":"Orlando","state":"FL","aLT":"123ABC","phoneNumber":"(123)999-4536"},
  {"id":5,"name":"Annemarie","address":"223 Edinburgh","zipCode":"33120","city":"Orlando","state":"FL","aLT":"123ABC","phoneNumber":"(123)999-4536"},
  {"id":6,"name":"Annemarie","address":"223 Edinburgh","zipCode":"33120","city":"Orlando","state":"FL","aLT":"123ABC","phoneNumber":"(123)999-4536"},
  {"id":7,"name":"Annemarie","address":"223 Edinburgh","zipCode":"33120","city":"Orlando","state":"FL","aLT":"123ABC","phoneNumber":"(123)999-4536"},
  {"id":8,"name":"Annemarie","address":"223 Edinburgh","zipCode":"33120","city":"Orlando","state":"FL","aLT":"123ABC","phoneNumber":"(123)999-4536"},
  {"id":9,"name":"Annemarie","address":"223 Edinburgh","zipCode":"33120","city":"Orlando","state":"FL","aLT":"123ABC","phoneNumber":"(123)999-4536"},
  {"id":10,"name":"Annemarie","address":"223 Edinburgh","zipCode":"33120","city":"Orlando","state":"FL","aLT":"123ABC","phoneNumber":"(123)999-4536"},
  {"id":11,"name":"Annemarie","address":"223 Edinburgh","zipCode":"33120","city":"Orlando","state":"FL","aLT":"123ABC","phoneNumber":"(123)999-4536"},
  {"id":12,"name":"Annemarie","address":"223 Edinburgh","zipCode":"33120","city":"Orlando","state":"FL","aLT":"123ABC","phoneNumber":"(123)999-4536"}
]